P/2011 NO1 (Elenin),e,15.2477,295.8045,263.7790,5.525813,0.0758769,0.77460571,294.2051,09/01.0/2021,2000,g 15.0,4.0
# From MPC 82318
P/2011 P1 (McNaught),e,5.6605,4.2369,348.9578,7.464843,0.0483251,0.32760463,196.0441,09/01.0/2021,2000,g  9.0,4.0
# From MPC 77806
P/2011 Q3 (McNaught),e,6.0575,32.0275,310.9909,4.970760,0.0889344,0.53277937,328.6581,09/01.0/2021,2000,g 13.5,4.0
# From MPC 98558
P/2011 S1 (Gibbs),e,2.6851,218.8702,192.4248,8.584322,0.0391873,0.20073448,101.0124,09/01.0/2021,2000,g  8.0,4.0
# From MPC 79022
P/2011 UA134 (Spacewatch-PANSTARRS),e,10.4408,40.4042,32.4183,5.607178,0.0742314,0.62938272,266.0396,09/01.0/2021,2000,g 17.5,4.0
# From MPC 77406
P/2011 V1 (Boattini),e,7.3755,46.8210,269.3069,3.855769,0.1301780,0.55055536,138.5978,09/01.0/2021,2000,g 15.5,4.0
# From MPC 82718
P/2011 W1 (PANSTARRS),e,3.7186,161.7882,282.7436,4.661717,0.0979231,0.28737851,344.3619,09/01.0/2021,2000,g 11.5,4.0
# From MPC 79342
P/2011 Y2 (Boattini),e,6.3721,309.3636,131.9105,6.239651,0.0632359,0.70954740,219.2911,09/01.0/2021,2000,g 15.0,4.0
# From MPC 94669
P/2012 B1 (PANSTARRS),e,7.6121,36.2124,162.5281,6.529928,0.0590665,0.40920987,175.3190,09/01.0/2021,2000,g  9.0,4.0
# From MPC 78590
P/2012 C3 (PANSTARRS),e,9.0920,135.3677,344.9542,9.748681,0.0323806,0.63011148,359.9758,10/06.0/2011,2000,g 13.0,4.0
# From MPC 84931
P/2012 F2 (PANSTARRS),e,14.7140,227.0287,33.3029,6.331103,0.0618707,0.54214519,189.5432,09/01.0/2021,2000,g 12.0,4.0
# From MPC 79344
P/2012 G1 (PANSTARRS),e,11.6925,282.5440,286.1149,4.172871,0.1156250,0.38072240,359.9500,06/01.0/2012,2000,g 15.0,4.0
# From MPC 80898
P/2012 K3 (Gibbs),e,13.1944,125.8096,172.2011,3.626160,0.1427360,0.42327665,106.4085,09/01.0/2021,2000,g 15.0,4.0
# From MPC 88326
P/2012 NJ (La Sagra),e,84.6617,315.5458,338.3557,8.462223,0.0400385,0.84712595,134.7737,09/01.0/2021,2000,g 14.5,4.0
# From MPC 81470
P/2012 O1 (McNaught),e,7.4308,91.9719,238.2517,3.540815,0.1479276,0.59459161,135.1099,09/01.0/2021,2000,g 17.5,4.0
# From MPC 80899
P/2012 O2 (McNaught),e,24.4846,120.6809,183.4428,3.624352,0.1428429,0.53264578,121.2520,09/01.0/2021,2000,g 17.0,4.0
# From MPC 82720
P/2012 O3 (McNaught),e,16.6160,336.4146,344.7418,4.572747,0.1007948,0.64700540,332.7086,09/01.0/2021,2000,g 16.5,4.0
# From MPC 82320
P/2012 T2 (PANSTARRS),e,12.5599,73.7204,310.4760,5.734188,0.0717788,0.16147586,219.1956,09/01.0/2021,2000,g 10.0,4.0
# From MPC 80900
P/2012 T3 (PANSTARRS),e,9.5665,114.4018,195.4840,6.151363,0.0646022,0.61724102,220.1037,09/01.0/2021,2000,g 15.0,4.0
# From MPC 87914
P/2012 TK8 (Tenagra),e,6.3402,288.9635,128.0289,4.127119,0.1175530,0.27422774,353.5183,09/01.0/2021,2000,g 13.0,4.0
# From MPC 82720
P/2012 U2 (PANSTARRS),e,10.7555,185.3022,228.2572,7.138259,0.0516792,0.49865182,166.2642,09/01.0/2021,2000,g 12.5,4.0
# From MPC 84024
P/2012 US27 (Siding Spring),e,39.3480,49.1830,0.8023,5.166466,0.0839293,0.64774772,263.7544,09/01.0/2021,2000,g 13.5,4.0
# From MPC 82721
P/2012 WA34 (Lemmon-PANSTARRS),e,6.0836,93.9718,355.0514,4.722795,0.0960297,0.34617868,295.6110,09/01.0/2021,2000,g 13.5,4.0
# From MPC 82721
P/2013 AL76 (Catalina),e,144.8464,145.9851,27.0815,6.496868,0.0595180,0.68633269,189.8542,09/01.0/2021,2000,g 16.0,4.0
# From MPC 91612
P/2013 G1 (Kowalski),e,5.4636,221.3721,51.4651,6.891023,0.0544852,0.51257851,153.5971,09/01.0/2021,2000,g 11.0,4.0
# From MPC 84025
P/2013 G4 (PANSTARRS),e,5.9165,339.6380,214.6749,4.440086,0.1053458,0.40947345,329.2962,09/01.0/2021,2000,g 15.0,4.0
# From MPC 91613
P/2013 J2 (McNaught),e,15.5290,289.4106,37.7696,6.222764,0.0634935,0.65767731,185.7043,09/01.0/2021,2000,g 13.0,4.0
# From MPC 86229
P/2013 N3 (PANSTARRS),e,2.1739,17.4672,323.9070,7.391607,0.0490451,0.59332150,135.0392,09/01.0/2021,2000,g 13.0,4.0
# From MPC 85834
P/2013 N5 (PANSTARRS),e,23.4436,187.1585,176.9016,6.798081,0.0556064,0.73224517,165.7625,09/01.0/2021,2000,g 17.0,4.0
# From MPC 85834
P/2013 P1 (PANSTARRS),e,18.7246,160.5935,138.1763,8.573269,0.0392631,0.60576820,121.9064,09/01.0/2021,2000,g 12.0,4.0
# From MPC 94671
P/2013 R3 (Catalina-PANSTARRS),e,0.8653,342.0006,11.1813,3.033462,0.1865504,0.27533051,186.3232,09/01.0/2021,2000,g 14.0,4.0
# From unp
P/2013 R3-A (Catalina-PANSTARRS),e,0.8647,341.9674,11.2203,3.033320,0.1865635,0.27530005,186.3591,09/01.0/2021,2000,g  9.0,4.0
# From MPEC 2015-M77
P/2013 R3-B (Catalina-PANSTARRS),e,0.8659,342.0233,11.1552,3.033539,0.1865433,0.27534550,186.3039,09/01.0/2021,2000,g  9.0,4.0
# From MPC 85835
P/2013 T1 (PANSTARRS),e,24.2916,10.0819,346.1080,5.859678,0.0694854,0.62402942,205.0169,09/01.0/2021,2000,g 16.5,4.0
# From MPC 86643
P/2013 T2 (Schwartz),e,9.4569,0.8043,345.5227,3.490430,0.1511422,0.50125591,96.7748,09/01.0/2021,2000,g 16.0,4.0
# From MPC 91613
P/2013 W1 (PANSTARRS),e,4.6955,117.8471,1.2735,3.489562,0.1511986,0.59273020,53.7861,09/01.0/2021,2000,g 17.5,4.0
# From MPC101095
P/2013 YG46 (Spacewatch),e,7.8561,48.8463,242.5487,3.275668,0.1662472,0.45487769,278.1802,09/01.0/2021,2000,g 10.0,4.0
# From MPC 89728
P/2014 A2 (Hill),e,24.5352,106.6297,356.1897,5.927277,0.0683001,0.64527045,196.7532,09/01.0/2021,2000,g 15.0,4.0
# From MPC 92981
P/2014 A3 (PANSTARRS),e,13.6957,230.0350,213.5562,4.620262,0.0992440,0.24744056,300.9117,09/01.0/2021,2000,g 12.0,4.0
# From MPEC 2021-P47
C/2014 B1 (Schwartz),e,28.4109,161.4212,345.7136,5128,0.0000027,0.99813783,0.0000,09/07.5917/2017,2000,g  4.0,4.0
# From MPC102095
P/2014 C1 (TOTAS),e,2.6895,167.7705,23.9443,3.037644,0.1861653,0.44866057,162.1965,09/01.0/2021,2000,g 15.5,4.0
# From MPC 94280
C/2014 F3 (Sheppard-Trujillo),e,6.5957,326.7390,3.7217,15.26807,0.0165207,0.62732799,1.7021,09/01.0/2021,2000,g  6.0,4.0
# From MPC 98560
P/2014 L2 (NEOWISE),e,5.1996,149.3473,182.6697,6.303762,0.0622737,0.64827026,161.8932,09/01.0/2021,2000,g 12.0,4.0
# From MPC 90769
P/2014 L3 (Hill),e,6.2762,115.4743,178.6688,8.171400,0.0421948,0.77363294,110.4772,09/01.0/2021,2000,g 16.0,4.0
# From MPC 91614
P/2014 M4 (PANSTARRS),e,3.3374,263.2437,147.9607,5.872517,0.0692576,0.59453596,169.0751,09/01.0/2021,2000,g 15.0,4.0
# From MPC103844
P/2014 MG4 (Spacewatch-PANSTARRS),e,9.3710,311.7344,299.1036,5.012154,0.0878350,0.25943461,263.1804,09/01.0/2021,2000,g  9.5,4.0
# From MPC 98560
P/2014 O3 (PANSTARRS),e,7.8040,87.6446,204.6708,7.567643,0.0473438,0.38579600,127.3585,09/01.0/2021,2000,g 10.5,4.0
# From MPEC 2021-P47
C/2014 OE4 (PANSTARRS),h,12/13.0294/2016,81.2901,240.4268,65.8953,1.003217,6.250086,2000,11.0,2.0
# From MPC 91615
P/2014 R5 (Lemmon-PANSTARRS),e,1.0883,126.5605,213.7399,4.056381,0.1206413,0.41375840,317.5349,09/01.0/2021,2000,g 15.0,4.0
# From MPC 91616
P/2014 U4 (PANSTARRS),e,6.4291,11.8893,347.7499,3.506208,0.1501231,0.46489347,29.9457,09/01.0/2021,2000,g 18.0,4.0
# From MPC 95211
P/2014 V1 (PANSTARRS),e,22.5249,166.2001,177.5939,5.480470,0.0768205,0.53443836,185.2369,09/01.0/2021,2000,g 14.0,4.0
# From MPC 93586
P/2014 W1 (PANSTARRS),e,8.8376,246.2445,152.1977,4.462941,0.1045375,0.38884494,272.2081,09/01.0/2021,2000,g 15.5,4.0
# From MPC105542
P/2014 W4 (PANSTARRS),e,15.2768,33.3658,67.7492,6.595632,0.0581861,0.35226975,120.5903,09/01.0/2021,2000,g 11.0,4.0
# From MPEC 2021-Q47
P/2014 W12 (Gibbs),e,8.5152,299.3362,36.8094,3.484462,0.1515307,0.51959070,16.5676,09/01.0/2021,2000,g 15.0,4.0
# From MPC 94281
P/2014 X1 (Elenin),e,26.0163,61.5203,33.9352,6.208284,0.0637157,0.70872167,155.1942,09/01.0/2021,2000,g 15.0,4.0
# From MPC 92275
P/2015 A3 (PANSTARRS),e,172.5323,277.2085,249.2971,7.809796,0.0451590,0.85096896,107.8273,09/01.0/2021,2000,g 20.0,4.0
# From MPC 99270
P/2015 B1 (PANSTARRS),e,18.0370,352.9818,188.8935,9.497607,0.0336731,0.36759148,73.3836,09/01.0/2021,2000,g  8.5,4.0
# From MPC109141
P/2015 B4 (Lemmon-PANSTARRS),e,1.7604,266.0279,227.4182,8.527520,0.0395795,0.56006753,95.0677,09/01.0/2021,2000,g 11.0,4.0
# From MPC101096
P/2015 C1 (TOTAS-Gibbs),e,13.8984,348.8099,178.2560,6.581588,0.0583725,0.56029336,135.4353,09/01.0/2021,2000,g 12.5,4.0
# From MPC109141
P/2015 D5 (Kowalski),e,20.5088,74.0609,39.8141,8.965326,0.0367160,0.48894927,99.5401,09/01.0/2021,2000,g  9.0,4.0
# From MPC 96866
P/2015 D6 (Lemmon-PANSTARRS),e,20.2011,45.9631,125.1397,7.142245,0.0516359,0.36151705,116.3911,09/01.0/2021,2000,g 10.5,4.0
# From MPEC 2021-P47
C/2015 ER61 (PANSTARRS),e,6.3304,235.1051,68.4010,518.3338,0.0000835,0.99798383,0.0000,05/10.5154/2017,2000,g 11.0,2.0
# From MPEC 2018-BF5
C/2015 E61-B (PANSTARRS),e,6.3319,235.1402,68.4904,1607,0.0000153,0.99934856,0.0000,05/10.4931/2017,2000,g 13.5,2.0
# From MPC117068
C/2015 H2 (PANSTARRS),h,09/14.0219/2016,33.6458,350.6693,288.1480,1.005628,4.982854,2000,7.5,4.0
# From MPEC 2021-P47
P/2015 HG16 (PANSTARRS),e,18.7759,58.4263,47.6088,4.750672,0.0951857,0.35216642,250.6007,09/01.0/2021,2000,g 12.5,4.0
# From MPC 95213
P/2015 K5 (PANSTARRS),e,39.9448,134.1756,106.3584,6.722900,0.0565417,0.55296495,128.9490,09/01.0/2021,2000,g 13.5,4.0
# From MPC107684
P/2015 M2 (PANSTARRS),e,3.9719,86.5856,225.6383,7.233283,0.0506642,0.18085662,110.5181,09/01.0/2021,2000,g  8.5,4.0
# From MPEC 2021-P47
C/2015 O1 (PANSTARRS),h,02/19.8862/2018,127.2193,299.8498,89.6225,1.001503,3.727644,2000,6.5,4.0
# From MPC 99819
P/2015 P4 (PANSTARRS),e,8.7174,104.7449,280.5758,6.048199,0.0662621,0.58508046,135.8476,09/01.0/2021,2000,g 14.0,4.0
# From MPC102952
P/2015 PD229 (Cameron-ISON),e,2.0263,342.6314,352.5204,7.184986,0.0511759,0.32818300,112.9556,09/01.0/2021,2000,g 11.5,2.0
# From MPEC 2021-Q75
P/2015 Q1 (Scotti),e,22.3877,202.8519,199.8407,3.474439,0.1521868,0.47799507,334.8380,09/01.0/2021,2000,g 14.0,4.0
# From MPC 96867
P/2015 Q2 (Pimentel),e,146.5133,228.4537,244.5404,7.350219,0.0494599,0.75061762,108.1797,09/01.0/2021,2000,g 15.5,4.0
# From MPC 98562
P/2015 R1 (PANSTARRS),e,22.6844,48.3941,300.4731,5.880064,0.0691243,0.63433043,155.9397,09/01.0/2021,2000,g 14.0,4.0
# From MPC 95734
P/2015 R2 (PANSTARRS),e,15.4837,168.5971,149.7924,4.487473,0.1036815,0.45294995,235.4951,09/01.0/2021,2000,g 14.5,4.0
# From MPC117068
